{"type": "FeatureCollection", "features": [ {"type": "Feature", "properties": {"norad_id": 38552, "name": "METEOSAT-10 (MSG-3)", "group": "weather", "lat": -1.295857075467971, "lon": -100.80269105160814, "alt_km": 35783.79846717759, "timestamp": "2025-12-15T11:38:36.800392+00:00", "meta": {"OBJECT_NAME": "METEOSAT-10 (MSG-3)", "OBJECT_ID": "2012-035B", "EPOCH": "2025-12-14T21:58:49.499616", "MEAN_MOTION": 1.00275651, "ECCENTRICITY": 7.314e-05, "INCLINATION": 4.2339, "RA_OF_ASC_NODE": 61.7192, "ARG_OF_PERICENTER": 261.6595, "MEAN_ANOMALY": 90.3598, "EPHEMERIS_TYPE": 0, "CLASSIFICATION_TYPE": "U", "NORAD_CAT_ID": 38552, "ELEMENT_SET_NO": 999, "REV_AT_EPOCH": 4900, "BSTAR": 0, "MEAN_MOTION_DOT": 1.3e-07, "MEAN_MOTION_DDOT": 0}, "tle": {"line1": "1 38552U 12035B   25348.91585069  .00000013  00000+0  00000+0 0  9991", "line2": "2 38552   4.2339  61.7192 0000731 261.6595  90.3598  1.00275651 49001"}}, "geometry": {"type": "Point", "coordinates": [-100.80269105160814, -1.295857075467971]}}, {"type": "Feature", "properties": {"norad_id": 38771, "name": "METOP-B", "group": "weather", "lat": 81.15009642648018, "lon": -39.4467003927672, "alt_km": 811.7313526838907, "timestamp": "2025-12-15T11:38:36.800403+00:00", "meta": {"OBJECT_NAME": "METOP-B", "OBJECT_ID": "2012-049A", "EPOCH": "2025-12-14T21:42:51.739200", "MEAN_MOTION": 14.21409092, "ECCENTRICITY": 0.00029939, "INCLINATION": 98.6798, "RA_OF_ASC_NODE": 38.8269, "ARG_OF_PERICENTER": 139.392, "MEAN_ANOMALY": 220.7481, "EPHEMERIS_TYPE": 0, "CLASSIFICATION_TYPE": "U", "NORAD_CAT_ID": 38771, "ELEMENT_SET_NO": 999, "REV_AT_EPOCH": 68708, "BSTAR": 8.4195919e-05, "MEAN_MOTION_DOT": 1.4e-06, "MEAN_MOTION_DDOT": 0}, "tle": {"line1": "1 38771U 12049A   25348.90476550  .00000140  00000+0  84196-4 0  9996", "line2": "2 38771  98.6798  38.8269 0002993 139.3920 220.7481 14.21409092687086"}}, "geometry": {"type": "Point", "coordinates": [-39.4467003927672, 81.15009642648018]}}, {"type": "Feature", "properties": {"norad_id": 39216, "name": "INSAT-3D", "group": "weather", "lat": -1.1913260300135697, "lon": 28.561706603422486, "alt_km": 35791.218277632564, "timestamp": "2025-12-15T11:38:36.800415+00:00", "meta": {"OBJECT_NAME": "INSAT-3D", "OBJECT_ID": "2013-038B", "EPOCH": "2025-12-14T22:35:45.962016", "MEAN_MOTION": 1.00269092, "ECCENTRICITY": 0.0001318, "INCLINATION": 1.4504, "RA_OF_ASC_NODE": 84.9722, "ARG_OF_PERICENTER": 165.5357, "MEAN_ANOMALY": 301.802, "EPHEMERIS_TYPE": 0, "CLASSIFICATION_TYPE": "U", "NORAD_CAT_ID": 39216, "ELEMENT_SET_NO": 999, "REV_AT_EPOCH": 4523, "BSTAR": 0, "MEAN_MOTION_DOT": -3.2e-06, "MEAN_MOTION_DDOT": 0}, "tle": {"line1": "1 39216U 13038B   25348.94150419 -.00000320  00000+0  00000+0 0  9995", "line2": "2 39216   1.4504  84.9722 0001318 165.5357 301.8020  1.00269092 45231"}}, "geometry": {"type": "Point", "coordinates": [28.561706603422486, -1.1913260300135697]}}, {"type": "Feature", "properties": {"norad_id": 39260, "name": "FENGYUN 3C", "group": "weather", "lat": -77.62276288101815, "lon": 9.839190972139148, "alt_km": 847.4448420412737, "timestamp": "2025-12-15T11:38:36.800426+00:00", "meta": {"OBJECT_NAME": "FENGYUN 3C", "OBJECT_ID": "2013-052A", "EPOCH": "2025-12-14T22:27:22.326912", "MEAN_MOTION": 14.15696934, "ECCENTRICITY": 0.00144006, "INCLINATION": 98.4765, "RA_OF_ASC_NODE": 326.5079, "ARG_OF_PERICENTER": 189.5606, "MEAN_ANOMALY": 170.5297, "EPHEMERIS_TYPE": 0, "CLASSIFICATION_TYPE": "U", "NORAD_CAT_ID": 39260, "ELEMENT_SET_NO": 999, "REV_AT_EPOCH": 63249, "BSTAR": 7.7924438e-05, "MEAN_MOTION_DOT": 1.12e-06, "MEAN_MOTION_DDOT": 0}, "tle": {"line1": "1 39260U 13052A   25348.93567508  .00000112  00000+0  77924-4 0  9992", "line2": "2 39260  98.4765 326.5079 0014400 189.5606 170.5297 14.15696934632490"}}, "geometry": {"type": "Point", "coordinates": [9.839190972139148, -77.62276288101815]}}, {"type": "Feature", "properties": {"norad_id": 40069, "name": "METEOR-M 2", "group": "weather", "lat": -43.031959024421724, "lon": -25.019647581361824, "alt_km": 828.832377193191, "timestamp": "2025-12-15T11:38:36.800436+00:00", "meta": {"OBJECT_NAME": "METEOR-M 2", "OBJECT_ID": "2014-037A", "EPOCH": "2025-12-14T22:19:58.694880", "MEAN_MOTION": 14.21387985, "ECCENTRICITY": 0.00050988, "INCLINATION": 98.4902, "RA_OF_ASC_NODE": 326.4312, "ARG_OF_PERICENTER": 202.8399, "MEAN_ANOMALY": 157.2553, "EPHEMERIS_TYPE": 0, "CLASSIFICATION_TYPE": "U", "NORAD_CAT_ID": 40069, "ELEMENT_SET_NO": 999, "REV_AT_EPOCH": 59314, "BSTAR": 0.00019314635, "MEAN_MOTION_DOT": 3.8e-06, "MEAN_MOTION_DDOT": 0}, "tle": {"line1": "1 40069U 14037A   25348.93054045  .00000380  00000+0  19315-3 0  9998", "line2": "2 40069  98.4902 326.4312 0005098 202.8399 157.2553 14.21387985593147"}}, "geometry": {"type": "Point", "coordinates": [-25.019647581361824, -43.031959024421724]}}, {"type": "Feature", "properties": {"norad_id": 40267, "name": "HIMAWARI-8", "group": "weather", "lat": 0.0065545951792130835, "lon": 39.70458073678979, "alt_km": 35787.33624241617, "timestamp": "2025-12-15T11:38:36.800448+00:00", "meta": {"OBJECT_NAME": "HIMAWARI-8", "OBJECT_ID": "2014-060A", "EPOCH": "2025-12-14T22:38:53.164032", "MEAN_MOTION": 1.00273206, "ECCENTRICITY": 9.061e-05, "INCLINATION": 0.0104, "RA_OF_ASC_NODE": 238.1758, "ARG_OF_PERICENTER": 47.1377, "MEAN_ANOMALY": 278.9244, "EPHEMERIS_TYPE": 0, "CLASSIFICATION_TYPE": "U", "NORAD_CAT_ID": 40267, "ELEMENT_SET_NO": 999, "REV_AT_EPOCH": 4091, "BSTAR": 0, "MEAN_MOTION_DOT": -2.55e-06, "MEAN_MOTION_DDOT": 0}, "tle": {"line1": "1 40267U 14060A   25348.94367088 -.00000255  00000+0  00000+0 0  9998", "line2": "2 40267   0.0104 238.1758 0000906  47.1377 278.9244  1.00273206 40915"}}, "geometry": {"type": "Point", "coordinates": [39.70458073678979, 0.0065545951792130835]}}, {"type": "Feature", "properties": {"norad_id": 40367, "name": "FENGYUN 2G", "group": "weather", "lat": -5.02824635132002, "lon": -1.4249701932954828, "alt_km": 35787.640790201214, "timestamp": "2025-12-15T11:38:36.800460+00:00", "meta": {"OBJECT_NAME": "FENGYUN 2G", "OBJECT_ID": "2014-090A", "EPOCH": "2025-12-14T19:01:36.473664", "MEAN_MOTION": 1.00263482, "ECCENTRICITY": 0.00030138, "INCLINATION": 5.1737, "RA_OF_ASC_NODE": 75.0751, "ARG_OF_PERICENTER": 200.3872, "MEAN_ANOMALY": 193.116, "EPHEMERIS_TYPE": 0, "CLASSIFICATION_TYPE": "U", "NORAD_CAT_ID": 40367, "ELEMENT_SET_NO": 999, "REV_AT_EPOCH": 4015, "BSTAR": 0, "MEAN_MOTION_DOT": -2.83e-06, "MEAN_MOTION_DDOT": 0}, "tle": {"line1": "1 40367U 14090A   25348.79278326 -.00000283  00000+0  00000+0 0  9992", "line2": "2 40367   5.1737  75.0751 0003013 200.3872 193.1160  1.00263482 40156"}}, "geometry": {"type": "Point", "coordinates": [-1.4249701932954828, -5.02824635132002]}}, {"type": "Feature", "properties": {"norad_id": 40732, "name": "METEOSAT-11 (MSG-4)", "group": "weather", "lat": -0.7914184617993021, "lon": -91.72087469972568, "alt_km": 35785.619350409164, "timestamp": "2025-12-15T11:38:36.800472+00:00", "meta": {"OBJECT_NAME": "METEOSAT-11 (MSG-4)", "OBJECT_ID": "2015-034A", "EPOCH": "2025-12-14T22:01:19.261056", "MEAN_MOTION": 1.00268171, "ECCENTRICITY": 9.122e-05, "INCLINATION": 2.7411, "RA_OF_ASC_NODE": 71.9954, "ARG_OF_PERICENTER": 129.6197, "MEAN_ANOMALY": 221.8035, "EPHEMERIS_TYPE": 0, "CLASSIFICATION_TYPE": "U", "NORAD_CAT_ID": 40732, "ELEMENT_SET_NO": 999, "REV_AT_EPOCH": 536, "BSTAR": 0, "MEAN_MOTION_DOT": 8e-07, "MEAN_MOTION_DDOT": 0}, "tle": {"line1": "1 40732U 15034A   25348.91758404  .00000080  00000+0  00000+0 0  9995", "line2": "2 40732   2.7411  71.9954 0000912 129.6197 221.8035  1.00268171  5366"}}, "geometry": {"type": "Point", "coordinates": [-91.72087469972568, -0.7914184617993021]}}, {"type": "Feature", "properties": {"norad_id": 41105, "name": "ELEKTRO-L 2", "group": "weather", "lat": 0.8736894831681866, "lon": -115.4310095196745, "alt_km": 35772.39543182946, "timestamp": "2025-12-15T11:38:36.800484+00:00", "meta": {"OBJECT_NAME": "ELEKTRO-L 2", "OBJECT_ID": "2015-074A", "EPOCH": "2025-12-14T01:21:52.095744", "MEAN_MOTION": 1.0027252, "ECCENTRICITY": 0.00038925, "INCLINATION": 6.2293, "RA_OF_ASC_NODE": 72.8137, "ARG_OF_PERICENTER": 207.3981, "MEAN_ANOMALY": 168.7392, "EPHEMERIS_TYPE": 0, "CLASSIFICATION_TYPE": "U", "NORAD_CAT_ID": 41105, "ELEMENT_SET_NO": 999, "REV_AT_EPOCH": 3665, "BSTAR": 0, "MEAN_MOTION_DOT": -1.03e-06, "MEAN_MOTION_DDOT": 0}, "tle": {"line1": "1 41105U 15074A   25348.05685296 -.00000103  00000+0  00000+0 0  9994", "line2": "2 41105   6.2293  72.8137 0003892 207.3981 168.7392  1.00272520 36650"}}, "geometry": {"type": "Point", "coordinates": [-115.4310095196745, 0.8736894831681866]}}, {"type": "Feature", "properties": {"norad_id": 41752, "name": "INSAT-3DR", "group": "weather", "lat": -0.08913032458435693, "lon": -26.831674165366785, "alt_km": 35758.013658850585, "timestamp": "2025-12-15T11:38:36.800495+00:00", "meta": {"OBJECT_NAME": "INSAT-3DR", "OBJECT_ID": "2016-054A", "EPOCH": "2025-12-14T22:19:47.492256", "MEAN_MOTION": 1.00271457, "ECCENTRICITY": 0.00142385, "INCLINATION": 0.0974, "RA_OF_ASC_NODE": 86.7634, "ARG_OF_PERICENTER": 184.3023, "MEAN_ANOMALY": 221.7169, "EPHEMERIS_TYPE": 0, "CLASSIFICATION_TYPE": "U", "NORAD_CAT_ID": 41752, "ELEMENT_SET_NO": 999, "REV_AT_EPOCH": 3397, "BSTAR": 0, "MEAN_MOTION_DOT": -5.7e-07, "MEAN_MOTION_DDOT": 0}, "tle": {"line1": "1 41752U 16054A   25348.93041079 -.00000057  00000+0  00000+0 0  9991", "line2": "2 41752   0.0974  86.7634 0014238 184.3023 221.7169  1.00271457 33971"}}, "geometry": {"type": "Point", "coordinates": [-26.831674165366785, -0.08913032458435693]}}]}